start=new Date('2022-06-06T00:00:00.000Z').valueOf();
sats=[{"SITE":"AFETR","TIME_SYSTEM":"UTC","CLASSIFICATION_TYPE":"U","OBJECT_NAME":"STARLINK-2219","RA_OF_ASC_NODE":"176.9411","OBJECT_TYPE":"PAYLOAD","COUNTRY_CODE":"US","CENTER_NAME":"EARTH","ARG_OF_PERICENTER":"59.4059","EPOCH":"2022-06-05T07:35:14.879616","ELEMENT_SET_NO":"999","GP_ID":"205446515","APOAPSIS":"548.382","ECCENTRICITY":"0.00016770","EPHEMERIS_TYPE":"0","MEAN_MOTION_DOT":"-0.00000927","NORAD_CAT_ID":"48569","BSTAR":"-0.00004333200000","OBJECT_ID":"2021-041S","PERIAPSIS":"546.059","MEAN_ANOMALY":"300.7095","SEMIMAJOR_AXIS":"6925.355","INCLINATION":"53.0525","TLE_LINE2":"2 48569  53.0525 176.9411 0001677  59.4059 300.7095 15.06397786 58207","MEAN_MOTION":"15.06397786","TLE_LINE1":"1 48569U 21041S   22156.31614444 -.00000927  00000-0 -43332-4 0  9992","MEAN_ELEMENT_THEORY":"SGP4","DECAY_DATE":null,"LAUNCH_DATE":"2021-05-15","REF_FRAME":"TEME","PERIOD":"95.592","REV_AT_EPOCH":"5820","MEAN_MOTION_DDOT":"0.0000000000000","FILE":"3482995","RCS_SIZE":"LARGE"},{"TLE_LINE2":"2 48570  53.0540 184.9012 0001549  55.8484 304.2652 15.06404594 58127","INCLINATION":"53.0540","MEAN_ELEMENT_THEORY":"SGP4","TLE_LINE1":"1 48570U 21041T   22156.76858598 -.00000928  00000-0 -43387-4 0  9994","MEAN_MOTION":"15.06404594","DECAY_DATE":null,"REF_FRAME":"TEME","LAUNCH_DATE":"2021-05-15","PERIOD":"95.592","MEAN_MOTION_DDOT":"0.0000000000000","REV_AT_EPOCH":"5812","RCS_SIZE":"LARGE","FILE":"3482995","MEAN_MOTION_DOT":"-0.00000928","EPHEMERIS_TYPE":"0","BSTAR":"-0.00004338700000","NORAD_CAT_ID":"48570","OBJECT_ID":"2021-041T","PERIAPSIS":"546.127","MEAN_ANOMALY":"304.2652","SEMIMAJOR_AXIS":"6925.334","EPOCH":"2022-06-05T18:26:45.828672","ELEMENT_SET_NO":"999","GP_ID":"205445264","ECCENTRICITY":"0.00015490","APOAPSIS":"548.272","SITE":"AFETR","TIME_SYSTEM":"UTC","CLASSIFICATION_TYPE":"U","OBJECT_TYPE":"PAYLOAD","RA_OF_ASC_NODE":"184.9012","OBJECT_NAME":"STARLINK-2220","COUNTRY_CODE":"US","CENTER_NAME":"EARTH","ARG_OF_PERICENTER":"55.8484"},{"TIME_SYSTEM":"UTC","SITE":"AFETR","RA_OF_ASC_NODE":"184.8788","OBJECT_TYPE":"PAYLOAD","OBJECT_NAME":"STARLINK-2221","CLASSIFICATION_TYPE":"U","CENTER_NAME":"EARTH","COUNTRY_CODE":"US","ARG_OF_PERICENTER":"58.4182","EPOCH":"2022-06-05T18:37:23.355264","ELEMENT_SET_NO":"999","ECCENTRICITY":"0.00015520","APOAPSIS":"548.282","GP_ID":"205445514","BSTAR":"-0.00003416300000","NORAD_CAT_ID":"48571","EPHEMERIS_TYPE":"0","MEAN_MOTION_DOT":"-0.00000790","OBJECT_ID":"2021-041U","PERIAPSIS":"546.132","SEMIMAJOR_AXIS":"6925.342","MEAN_ANOMALY":"301.6958","TLE_LINE2":"2 48571  53.0539 184.8788 0001552  58.4182 301.6958 15.06402182 58135","INCLINATION":"53.0539","DECAY_DATE":null,"MEAN_ELEMENT_THEORY":"SGP4","MEAN_MOTION":"15.06402182","TLE_LINE1":"1 48571U 21041U   22156.77596476 -.00000790  00000-0 -34163-4 0  9999","PERIOD":"95.592","REF_FRAME":"TEME","LAUNCH_DATE":"2021-05-15","RCS_SIZE":"LARGE","FILE":"3482995","MEAN_MOTION_DDOT":"0.0000000000000","REV_AT_EPOCH":"5813"},{"OBJECT_NAME":"STARLINK-2222","RA_OF_ASC_NODE":"184.8892","OBJECT_TYPE":"PAYLOAD","CLASSIFICATION_TYPE":"U","TIME_SYSTEM":"UTC","SITE":"AFETR","ARG_OF_PERICENTER":"65.0381","CENTER_NAME":"EARTH","COUNTRY_CODE":"US","EPOCH":"2022-06-05T18:32:04.808832","APOAPSIS":"548.173","ECCENTRICITY":"0.00013150","GP_ID":"205446764","ELEMENT_SET_NO":"999","NORAD_CAT_ID":"48572","BSTAR":"-0.00011452000000","EPHEMERIS_TYPE":"0","MEAN_MOTION_DOT":"-0.00001986","SEMIMAJOR_AXIS":"6925.397","MEAN_ANOMALY":"295.0745","OBJECT_ID":"2021-041V","PERIAPSIS":"546.351","DECAY_DATE":null,"TLE_LINE1":"1 48572U 21041V   22156.77227788 -.00001986  00000-0 -11452-3 0  9990","MEAN_MOTION":"15.06384206","MEAN_ELEMENT_THEORY":"SGP4","INCLINATION":"53.0522","TLE_LINE2":"2 48572  53.0522 184.8892 0001315  65.0381 295.0745 15.06384206 58132","FILE":"3482995","RCS_SIZE":"LARGE","MEAN_MOTION_DDOT":"0.0000000000000","REV_AT_EPOCH":"5813","PERIOD":"95.593","LAUNCH_DATE":"2021-05-15","REF_FRAME":"TEME"},{"TLE_LINE2":"2 48573  53.0537 174.9687 0001897  56.2326 303.8843 15.06402702 58260","INCLINATION":"53.0537","DECAY_DATE":null,"MEAN_ELEMENT_THEORY":"SGP4","MEAN_MOTION":"15.06402702","TLE_LINE1":"1 48573U 21041W   22156.75107102  .00000874  00000-0  77583-4 0  9997","PERIOD":"95.592","REF_FRAME":"TEME","LAUNCH_DATE":"2021-05-15","RCS_SIZE":"LARGE","FILE":"3482995","REV_AT_EPOCH":"5826","MEAN_MOTION_DDOT":"0.0000000000000","BSTAR":"0.00007758300000","NORAD_CAT_ID":"48573","EPHEMERIS_TYPE":"0","MEAN_MOTION_DOT":"0.00000874","OBJECT_ID":"2021-041W","PERIAPSIS":"545.892","SEMIMAJOR_AXIS":"6925.340","MEAN_ANOMALY":"303.8843","EPOCH":"2022-06-05T18:01:32.536128","ELEMENT_SET_NO":"999","ECCENTRICITY":"0.00018970","APOAPSIS":"548.519","GP_ID":"205447015","TIME_SYSTEM":"UTC","SITE":"AFETR","OBJECT_TYPE":"PAYLOAD","RA_OF_ASC_NODE":"174.9687","OBJECT_NAME":"STARLINK-2224","CLASSIFICATION_TYPE":"U","CENTER_NAME":"EARTH","COUNTRY_CODE":"US","ARG_OF_PERICENTER":"56.2326"},{"APOAPSIS":"548.615","ECCENTRICITY":"0.00019750","GP_ID":"205445764","ELEMENT_SET_NO":"999","EPOCH":"2022-06-05T22:00:00.999936","ARG_OF_PERICENTER":"51.7051","CENTER_NAME":"EARTH","COUNTRY_CODE":"US","OBJECT_TYPE":"PAYLOAD","RA_OF_ASC_NODE":"144.3191","OBJECT_NAME":"STARLINK-2225","CLASSIFICATION_TYPE":"U","TIME_SYSTEM":"UTC","SITE":"AFETR","RCS_SIZE":"LARGE","FILE":"3482995","MEAN_MOTION_DDOT":"0.0000000000000","REV_AT_EPOCH":"130","PERIOD":"95.593","REF_FRAME":"TEME","LAUNCH_DATE":"2021-05-15","DECAY_DATE":null,"MEAN_ELEMENT_THEORY":"SGP4","TLE_LINE1":"1 48574U 21041X   22156.91667824  .00035668  00000-0  24020-2 0  9993","MEAN_MOTION":"15.06388987","TLE_LINE2":"2 48574  53.0538 144.3191 0001975  51.7051 291.8136 15.06388987  1307","INCLINATION":"53.0538","SEMIMAJOR_AXIS":"6925.382","MEAN_ANOMALY":"291.8136","PERIAPSIS":"545.880","OBJECT_ID":"2021-041X","BSTAR":"0.00240200000000","NORAD_CAT_ID":"48574","EPHEMERIS_TYPE":"0","MEAN_MOTION_DOT":"0.00035668"},{"ECCENTRICITY":"0.00017310","APOAPSIS":"555.924","GP_ID":"205446014","ELEMENT_SET_NO":"999","EPOCH":"2022-06-05T22:00:00.999936","ARG_OF_PERICENTER":"60.5502","CENTER_NAME":"EARTH","COUNTRY_CODE":"US","RA_OF_ASC_NODE":"134.4705","OBJECT_TYPE":"PAYLOAD","OBJECT_NAME":"STARLINK-2227","CLASSIFICATION_TYPE":"U","TIME_SYSTEM":"UTC","SITE":"AFETR","RCS_SIZE":"LARGE","FILE":"3482995","REV_AT_EPOCH":"130","MEAN_MOTION_DDOT":"0.0000000000000","PERIOD":"95.748","REF_FRAME":"TEME","LAUNCH_DATE":"2021-05-15","DECAY_DATE":null,"MEAN_ELEMENT_THEORY":"SGP4","TLE_LINE1":"1 48575U 21041Y   22156.91667824  .00026153  00000-0  18877-2 0  9996","MEAN_MOTION":"15.03952744","TLE_LINE2":"2 48575  53.0519 134.4705 0001731  60.5502 241.4239 15.03952744  1307","INCLINATION":"53.0519","SEMIMAJOR_AXIS":"6932.859","MEAN_ANOMALY":"241.4239","PERIAPSIS":"553.524","OBJECT_ID":"2021-041Y","BSTAR":"0.00188770000000","NORAD_CAT_ID":"48575","EPHEMERIS_TYPE":"0","MEAN_MOTION_DOT":"0.00026153"},{"ARG_OF_PERICENTER":"52.4865","COUNTRY_CODE":"US","CENTER_NAME":"EARTH","CLASSIFICATION_TYPE":"U","RA_OF_ASC_NODE":"149.1978","OBJECT_TYPE":"PAYLOAD","OBJECT_NAME":"STARLINK-2228","SITE":"AFETR","TIME_SYSTEM":"UTC","GP_ID":"205446266","APOAPSIS":"548.613","ECCENTRICITY":"0.00020700","ELEMENT_SET_NO":"999","EPOCH":"2022-06-05T22:00:00.999936","MEAN_ANOMALY":"203.6990","SEMIMAJOR_AXIS":"6925.314","PERIAPSIS":"545.746","OBJECT_ID":"2021-041Z","MEAN_MOTION_DOT":"-0.00005087","EPHEMERIS_TYPE":"0","BSTAR":"-0.00032275000000","NORAD_CAT_ID":"48576","REV_AT_EPOCH":"130","MEAN_MOTION_DDOT":"0.0000000000000","RCS_SIZE":"LARGE","FILE":"3482995","REF_FRAME":"TEME","LAUNCH_DATE":"2021-05-15","PERIOD":"95.591","MEAN_ELEMENT_THEORY":"SGP4","TLE_LINE1":"1 48576U 21041Z   22156.91667824 -.00005087  00000-0 -32275-3 0  9991","MEAN_MOTION":"15.06411241","DECAY_DATE":null,"TLE_LINE2":"2 48576  53.0575 149.1978 0002070  52.4865 203.6990 15.06411241  1303","INCLINATION":"53.0575"},{"SEMIMAJOR_AXIS":"6925.347","MEAN_ANOMALY":"310.0900","OBJECT_ID":"2021-041AA","PERIAPSIS":"546.091","NORAD_CAT_ID":"48577","BSTAR":"-0.00005536500000","MEAN_MOTION_DOT":"-0.00001106","EPHEMERIS_TYPE":"0","FILE":"3482995","RCS_SIZE":"LARGE","MEAN_MOTION_DDOT":"0.0000000000000","REV_AT_EPOCH":"5826","PERIOD":"95.592","LAUNCH_DATE":"2021-05-15","REF_FRAME":"TEME","DECAY_DATE":null,"TLE_LINE1":"1 48577U 21041AA  22156.74370990 -.00001106  00000-0 -55365-4 0  9992","MEAN_MOTION":"15.06400349","MEAN_ELEMENT_THEORY":"SGP4","INCLINATION":"53.0533","TLE_LINE2":"2 48577  53.0533 175.0049 0001620  50.0231 310.0900 15.06400349 58264","ARG_OF_PERICENTER":"50.0231","CENTER_NAME":"EARTH","COUNTRY_CODE":"US","OBJECT_NAME":"STARLINK-2231","RA_OF_ASC_NODE":"175.0049","OBJECT_TYPE":"PAYLOAD","CLASSIFICATION_TYPE":"U","TIME_SYSTEM":"UTC","SITE":"AFETR","ECCENTRICITY":"0.00016200","APOAPSIS":"548.334","GP_ID":"205446516","ELEMENT_SET_NO":"999","EPOCH":"2022-06-05T17:50:56.535360"},{"COUNTRY_CODE":"US","CENTER_NAME":"EARTH","ARG_OF_PERICENTER":"64.9012","SITE":"AFETR","TIME_SYSTEM":"UTC","CLASSIFICATION_TYPE":"U","OBJECT_NAME":"STARLINK-2232","OBJECT_TYPE":"PAYLOAD","RA_OF_ASC_NODE":"175.3759","ELEMENT_SET_NO":"999","GP_ID":"205445265","ECCENTRICITY":"0.00016860","APOAPSIS":"555.898","EPOCH":"2022-06-05T18:29:07.879776","OBJECT_ID":"2021-041AB","PERIAPSIS":"553.561","MEAN_ANOMALY":"295.2151","SEMIMAJOR_AXIS":"6932.865","EPHEMERIS_TYPE":"0","MEAN_MOTION_DOT":"0.00000674","NORAD_CAT_ID":"48578","BSTAR":"0.00006806000000","LAUNCH_DATE":"2021-05-15","REF_FRAME":"TEME","PERIOD":"95.748","REV_AT_EPOCH":"5826","MEAN_MOTION_DDOT":"0.0000000000000","FILE":"3482995","RCS_SIZE":"LARGE","INCLINATION":"53.0540","TLE_LINE2":"2 48578  53.0540 175.3759 0001686  64.9012 295.2151 15.03951004 58265","TLE_LINE1":"1 48578U 21041AB  22156.77023009  .00000674  00000-0  68060-4 0  9995","MEAN_MOTION":"15.03951004","MEAN_ELEMENT_THEORY":"SGP4","DECAY_DATE":null}];
